QIANFAN-97              
1 66039U 25233G   25326.67236677  .00000419  00000+0  22796-3 0  9993
2 66039  89.0024  64.3446 0017343  99.2164 261.0983 14.10390792  5173
QIANFAN-98              
1 66040U 25233H   25327.10986101  .00000615  00000+0  26930-3 0  9990
2 66040  88.9960  64.2917 0015690 101.0664 259.2292 14.22426885  5240
QIANFAN-99              
1 66041U 25233J   25326.67119020  .00000430  00000+0  23339-3 0  9995
2 66041  88.9924  64.3549 0015627 104.8373 255.4544 14.10500569  5170
QIANFAN-100             
1 66042U 25233K   25325.56238922  .00000668  00000+0  28107-3 0  9997
2 66042  88.9970  64.4587 0017355 105.8830 254.4277 14.24567660  5020
QIANFAN-101             
1 66043U 25233L   25326.95740572  .00000584  00000+0  23517-3 0  9998
2 66043  88.9965  64.3069 0016952  99.4109 260.9002 14.26658373  5222
QIANFAN-102             
1 66044U 25233M   25326.87284025  .00000385  00000+0  19946-3 0  9996
2 66044  88.9964  64.3310 0017354 101.4809 258.8327 14.12803523  5207
QIANFAN-103             
1 66045U 25233N   25326.67317772  .00000323  00000+0  17595-3 0  9991
2 66045  88.9977  64.3481 0016683  96.6874 263.6210 14.09776766  5177
QIANFAN-104             
1 66046U 25233P   25327.08550573  .00000465  00000+0  24233-3 0  9990
2 66046  88.9965  64.3077 0017117 102.0913 258.2192 14.12867339  5232
